ONEWEB-0545             
1 54647U 22166F   24176.59238272 -.00000016  00000+0 -69488-4 0  9998
2 54647  87.9276  27.8498 0002169  97.5345 262.6035 13.21827076 76044
ONEWEB-0580             
1 54648U 22166G   24176.56556862  .00000009  00000+0 -10855-4 0  9999
2 54648  87.9285  27.8244 0001833 103.5238 256.6100 13.21827575 76084
ONEWEB-0582             
1 54649U 22166H   24176.60815008  .00000019  00000+0  15432-4 0  9991
2 54649  87.9281  27.8527 0001781 107.8870 252.2459 13.21826243 76064
ONEWEB-0583             
1 54650U 22166J   24176.61918863  .00000055  00000+0  10167-3 0  9996
2 54650  87.9281  27.8510 0001921  88.0893 272.0461 13.21823894 76072
ONEWEB-0584             
1 54651U 22166K   24176.56398366 -.00000055  00000+0 -16433-3 0  9995
2 54651  87.9285  27.8278 0001861  96.4936 263.6409 13.21826703 76050
ONEWEB-0585             
1 54652U 22166L   24176.58921503 -.00000071  00000+0 -20259-3 0  9992
2 54652  87.9286  27.8316 0001823  82.7464 277.3877 13.21827288 76068
ONEWEB-0586             
1 54653U 22166M   24176.60184836  .00000050  00000+0  88809-4 0  9997
2 54653  87.9280  27.8436 0001923  93.1156 267.0198 13.21826034 76061
ONEWEB-0587             
1 54654U 22166N   24176.61130677  .00000039  00000+0  62161-4 0  9993
2 54654  87.9280  27.7969 0001902  76.6385 283.4961 13.21824380 76229
